[{"OBJECT_NAME":"STARLINK-1199","OBJECT_ID":"2020-012Z","EPOCH":"2026-03-09T06:13:25.788000","MEAN_MOTION":15.29352067,"ECCENTRICITY":0.00016231,"INCLINATION":53.1569,"RA_OF_ASC_NODE":25.8332,"ARG_OF_PERICENTER":88.0191,"MEAN_ANOMALY":272.0995,"EPHEMERIS_TYPE":0,"CLASSIFICATION_TYPE":"U","NORAD_CAT_ID":45201,"ELEMENT_SET_NO":999,"REV_AT_EPOCH":33509,"BSTAR":-5.8258613e-5,"MEAN_MOTION_DOT":-2.037e-5,"MEAN_MOTION_DDOT":0},{"OBJECT_NAME":"FENGYUN 1C DEB","OBJECT_ID":"1999-025EJQ","EPOCH":"2026-03-08T21:27:56.444256","MEAN_MOTION":15.23229897,"ECCENTRICITY":0.00101559,"INCLINATION":98.6645,"RA_OF_ASC_NODE":227.592,"ARG_OF_PERICENTER":263.6857,"MEAN_ANOMALY":96.3219,"EPHEMERIS_TYPE":0,"CLASSIFICATION_TYPE":"U","NORAD_CAT_ID":37470,"ELEMENT_SET_NO":999,"REV_AT_EPOCH":66762,"BSTAR":0.011057202,"MEAN_MOTION_DOT":0.00271626,"MEAN_MOTION_DDOT":0}]
